[{"OBJECT_NAME":"DONGPO 10","OBJECT_ID":"2022-167H","EPOCH":"2026-03-09T22:44:56.137344","MEAN_MOTION":15.322785,"ECCENTRICITY":0.00061655,"INCLINATION":97.685,"RA_OF_ASC_NODE":235.0962,"ARG_OF_PERICENTER":106.9526,"MEAN_ANOMALY":253.2392,"EPHEMERIS_TYPE":0,"CLASSIFICATION_TYPE":"U","NORAD_CAT_ID":54689,"ELEMENT_SET_NO":999,"REV_AT_EPOCH":18015,"BSTAR":0.00049390523,"MEAN_MOTION_DOT":0.00015333,"MEAN_MOTION_DDOT":0},{"OBJECT_NAME":"STARLINK-35633","OBJECT_ID":"2025-240S","EPOCH":"2026-03-09T06:10:18.996384","MEAN_MOTION":15.30186772,"ECCENTRICITY":0.00014847,"INCLINATION":53.1605,"RA_OF_ASC_NODE":64.7039,"ARG_OF_PERICENTER":115.4098,"MEAN_ANOMALY":244.7056,"EPHEMERIS_TYPE":0,"CLASSIFICATION_TYPE":"U","NORAD_CAT_ID":66162,"ELEMENT_SET_NO":999,"REV_AT_EPOCH":2192,"BSTAR":0.00045942391,"MEAN_MOTION_DOT":0.00013266,"MEAN_MOTION_DDOT":0}]
